IRIDIUM 112             
1 41925U 17003J   25287.96697087  .00000248  00000+0  81379-4 0  9993
2 41925  86.4032 190.7405 0002308  88.2610 271.8851 14.34217904458127
IRIDIUM 111             
1 41926U 17003K   25287.67521136  .00000136  00000+0  41491-4 0  9990
2 41926  86.4037 190.9271 0002249  81.9205 278.2246 14.34217267458064
IRIDIUM 113             
1 42803U 17039A   25287.79471244  .00000145  00000+0  44703-4 0  9990
2 42803  86.3951  64.7292 0002263  95.2631 264.8823 14.34218644436014
IRIDIUM 123             
1 42804U 17039B   25287.76642256  .00000039  00000+0  68014-5 0  9995
2 42804  86.3916  96.2421 0002211  82.2919 277.8527 14.34217536434773
IRIDIUM 120             
1 42805U 17039C   25287.64882951  .00000271  00000+0  89601-4 0  9993
2 42805  86.3940  64.6042 0001872  87.8636 272.2774 14.34219645435988
IRIDIUM 115             
1 42806U 17039D   25287.61806641  .00000599  00000+0  17221-3 0  9994
2 42806  86.4461  64.7118 0002506  76.4587 283.6893 14.43282685438847
IRIDIUM 118             
1 42807U 17039E   25287.93767287  .00000046  00000+0  94219-5 0  9993
2 42807  86.3914  96.1695 0002258  93.7446 266.4008 14.34217641434796
IRIDIUM 117             
1 42808U 17039F   25287.88693194 -.00000012  00000+0 -11388-4 0  9993
2 42808  86.3914  96.1507 0002128  84.5427 275.6012 14.34217398434811
